start=new Date('2022-04-26T00:00:00.000Z').valueOf();
sats=[{"ELEMENT_SET_NO":"999","ECCENTRICITY":"0.00016020","EPOCH":"2022-04-25T20:45:18.535104","BSTAR":"0.00012925000000","LAUNCH_DATE":"2021-03-24","MEAN_MOTION_DDOT":"0.0000000000000","MEAN_ELEMENT_THEORY":"SGP4","COUNTRY_CODE":"US","REV_AT_EPOCH":"6175","SEMIMAJOR_AXIS":"6925.363","OBJECT_ID":"2021-024AU","NORAD_CAT_ID":"48019","REF_FRAME":"TEME","ARG_OF_PERICENTER":"49.6415","INCLINATION":"53.0527","PERIOD":"95.592","DECAY_DATE":null,"CENTER_NAME":"EARTH","MEAN_MOTION_DOT":"0.00001644","TIME_SYSTEM":"UTC","OBJECT_NAME":"STARLINK-2285","MEAN_ANOMALY":"310.4713","TLE_LINE1":"1 48019U 21024AU  22115.86479786  .00001644  00000-0  12925-3 0  9994","RCS_SIZE":"LARGE","GP_ID":"202026642","TLE_LINE2":"2 48019  53.0527 178.5324 0001602  49.6415 310.4713 15.06395198 61759","RA_OF_ASC_NODE":"178.5324","PERIAPSIS":"546.119","EPHEMERIS_TYPE":"0","OBJECT_TYPE":"PAYLOAD","SITE":"AFETR","FILE":"3416090","CLASSIFICATION_TYPE":"U","MEAN_MOTION":"15.06395198","APOAPSIS":"548.338"},{"REV_AT_EPOCH":"360","SEMIMAJOR_AXIS":"6925.425","OBJECT_ID":"2021-024AV","NORAD_CAT_ID":"48020","REF_FRAME":"TEME","INCLINATION":"53.0540","ARG_OF_PERICENTER":"50.1634","PERIOD":"95.594","ELEMENT_SET_NO":"999","ECCENTRICITY":"0.00019030","EPOCH":"2022-04-25T22:00:00.999936","BSTAR":"0.00313350000000","LAUNCH_DATE":"2021-03-24","MEAN_MOTION_DDOT":"0.0000000000000","MEAN_ELEMENT_THEORY":"SGP4","COUNTRY_CODE":"US","EPHEMERIS_TYPE":"0","OBJECT_TYPE":"PAYLOAD","SITE":"AFETR","FILE":"3416090","CLASSIFICATION_TYPE":"U","MEAN_MOTION":"15.06375140","APOAPSIS":"548.608","DECAY_DATE":null,"CENTER_NAME":"EARTH","MEAN_MOTION_DOT":"0.00046671","TIME_SYSTEM":"UTC","OBJECT_NAME":"STARLINK-2294","MEAN_ANOMALY":"204.0040","TLE_LINE1":"1 48020U 21024AV  22115.91667824  .00046671  00000-0  31335-2 0  9998","RCS_SIZE":"LARGE","GP_ID":"202026892","TLE_LINE2":"2 48020  53.0540 133.2845 0001903  50.1634 204.0040 15.06375140  3602","RA_OF_ASC_NODE":"133.2845","PERIAPSIS":"545.972"},{"RCS_SIZE":"LARGE","GP_ID":"202027639","TLE_LINE2":"2 48021  53.0558 138.8806 0002282  47.9269 312.1914 15.06385138 62311","PERIAPSIS":"545.679","RA_OF_ASC_NODE":"138.8806","DECAY_DATE":null,"TIME_SYSTEM":"UTC","MEAN_MOTION_DOT":"0.00001572","CENTER_NAME":"EARTH","MEAN_ANOMALY":"312.1914","OBJECT_NAME":"STARLINK-2301","TLE_LINE1":"1 48021U 21024AW  22115.78740189  .00001572  00000-0  12446-3 0  9994","CLASSIFICATION_TYPE":"U","SITE":"AFETR","FILE":"3416090","MEAN_MOTION":"15.06385138","APOAPSIS":"548.839","EPHEMERIS_TYPE":"0","OBJECT_TYPE":"PAYLOAD","MEAN_MOTION_DDOT":"0.0000000000000","MEAN_ELEMENT_THEORY":"SGP4","COUNTRY_CODE":"US","ELEMENT_SET_NO":"999","ECCENTRICITY":"0.00022820","EPOCH":"2022-04-25T18:53:51.523296","LAUNCH_DATE":"2021-03-24","BSTAR":"0.00012446000000","ARG_OF_PERICENTER":"47.9269","INCLINATION":"53.0558","REF_FRAME":"TEME","PERIOD":"95.593","REV_AT_EPOCH":"6231","SEMIMAJOR_AXIS":"6925.394","OBJECT_ID":"2021-024AW","NORAD_CAT_ID":"48021"},{"CENTER_NAME":"EARTH","MEAN_MOTION_DOT":"0.00001386","TIME_SYSTEM":"UTC","DECAY_DATE":null,"TLE_LINE1":"1 48022U 21024AX  22115.52290456  .00001386  00000-0  11199-3 0  9991","OBJECT_NAME":"STARLINK-2298","MEAN_ANOMALY":"312.6600","RCS_SIZE":"LARGE","RA_OF_ASC_NODE":"200.0653","PERIAPSIS":"545.856","GP_ID":"201992420","TLE_LINE2":"2 48022  53.0540 200.0653 0001995  47.4557 312.6600 15.06391998 61485","OBJECT_TYPE":"PAYLOAD","EPHEMERIS_TYPE":"0","MEAN_MOTION":"15.06391998","SITE":"AFETR","FILE":"3415659","CLASSIFICATION_TYPE":"U","APOAPSIS":"548.620","ECCENTRICITY":"0.00019950","ELEMENT_SET_NO":"999","BSTAR":"0.00011199000000","LAUNCH_DATE":"2021-03-24","EPOCH":"2022-04-25T12:32:58.953984","MEAN_MOTION_DDOT":"0.0000000000000","COUNTRY_CODE":"US","MEAN_ELEMENT_THEORY":"SGP4","SEMIMAJOR_AXIS":"6925.373","REV_AT_EPOCH":"6148","NORAD_CAT_ID":"48022","OBJECT_ID":"2021-024AX","REF_FRAME":"TEME","INCLINATION":"53.0540","ARG_OF_PERICENTER":"47.4557","PERIOD":"95.593"},{"PERIOD":"95.593","INCLINATION":"53.0539","ARG_OF_PERICENTER":"50.3800","REF_FRAME":"TEME","NORAD_CAT_ID":"48023","OBJECT_ID":"2021-024AY","SEMIMAJOR_AXIS":"6925.408","REV_AT_EPOCH":"6149","COUNTRY_CODE":"US","MEAN_ELEMENT_THEORY":"SGP4","MEAN_MOTION_DDOT":"0.0000000000000","LAUNCH_DATE":"2021-03-24","BSTAR":"-0.00002949100000","EPOCH":"2022-04-25T14:31:06.922272","ECCENTRICITY":"0.00016390","ELEMENT_SET_NO":"999","APOAPSIS":"548.408","MEAN_MOTION":"15.06380642","CLASSIFICATION_TYPE":"U","SITE":"AFETR","FILE":"3416090","OBJECT_TYPE":"PAYLOAD","EPHEMERIS_TYPE":"0","PERIAPSIS":"546.138","RA_OF_ASC_NODE":"199.6921","GP_ID":"202026142","TLE_LINE2":"2 48023  53.0539 199.6921 0001639  50.3800 309.7333 15.06380642 61499","RCS_SIZE":"LARGE","TLE_LINE1":"1 48023U 21024AY  22115.60494123 -.00000721  00000-0 -29491-4 0  9997","OBJECT_NAME":"STARLINK-2292","MEAN_ANOMALY":"309.7333","MEAN_MOTION_DOT":"-0.00000721","TIME_SYSTEM":"UTC","CENTER_NAME":"EARTH","DECAY_DATE":null},{"RCS_SIZE":"LARGE","GP_ID":"202026392","TLE_LINE2":"2 48026  53.0517 204.4768 0001594  63.5099 296.6053 15.06396080 61371","PERIAPSIS":"546.122","RA_OF_ASC_NODE":"204.4768","DECAY_DATE":null,"TIME_SYSTEM":"UTC","MEAN_MOTION_DOT":"0.00001744","CENTER_NAME":"EARTH","OBJECT_NAME":"STARLINK-2278","MEAN_ANOMALY":"296.6053","TLE_LINE1":"1 48026U 21024BB  22115.65054355  .00001744  00000-0  13594-3 0  9994","CLASSIFICATION_TYPE":"U","FILE":"3416090","SITE":"AFETR","MEAN_MOTION":"15.06396080","APOAPSIS":"548.329","EPHEMERIS_TYPE":"0","OBJECT_TYPE":"PAYLOAD","MEAN_MOTION_DDOT":"0.0000000000000","MEAN_ELEMENT_THEORY":"SGP4","COUNTRY_CODE":"US","ELEMENT_SET_NO":"999","ECCENTRICITY":"0.00015940","EPOCH":"2022-04-25T15:36:46.962720","BSTAR":"0.00013594000000","LAUNCH_DATE":"2021-03-24","INCLINATION":"53.0517","ARG_OF_PERICENTER":"63.5099","REF_FRAME":"TEME","PERIOD":"95.592","REV_AT_EPOCH":"6137","SEMIMAJOR_AXIS":"6925.361","OBJECT_ID":"2021-024BB","NORAD_CAT_ID":"48026"},{"CLASSIFICATION_TYPE":"U","FILE":"3416090","SITE":"AFETR","MEAN_MOTION":"15.06388853","APOAPSIS":"548.408","EPHEMERIS_TYPE":"0","OBJECT_TYPE":"PAYLOAD","RCS_SIZE":"LARGE","GP_ID":"202027139","TLE_LINE2":"2 48027  53.0531 178.4788 0001675  58.6694 301.4458 15.06388853 61751","PERIAPSIS":"546.088","RA_OF_ASC_NODE":"178.4788","DECAY_DATE":null,"MEAN_MOTION_DOT":"0.00001391","TIME_SYSTEM":"UTC","CENTER_NAME":"EARTH","OBJECT_NAME":"STARLINK-2300","MEAN_ANOMALY":"301.4458","TLE_LINE1":"1 48027U 21024BC  22115.87585428  .00001391  00000-0  11228-3 0  9999","INCLINATION":"53.0531","ARG_OF_PERICENTER":"58.6694","REF_FRAME":"TEME","PERIOD":"95.593","REV_AT_EPOCH":"6175","SEMIMAJOR_AXIS":"6925.383","OBJECT_ID":"2021-024BC","NORAD_CAT_ID":"48027","MEAN_MOTION_DDOT":"0.0000000000000","MEAN_ELEMENT_THEORY":"SGP4","COUNTRY_CODE":"US","ELEMENT_SET_NO":"999","ECCENTRICITY":"0.00016750","EPOCH":"2022-04-25T21:01:13.809792","LAUNCH_DATE":"2021-03-24","BSTAR":"0.00011228000000"},{"TLE_LINE1":"1 48028U 21024BD  22115.91667824  .00043046  00000-0  28925-2 0  9990","OBJECT_NAME":"STARLINK-2264","MEAN_ANOMALY":"105.5701","CENTER_NAME":"EARTH","TIME_SYSTEM":"UTC","MEAN_MOTION_DOT":"0.00043046","DECAY_DATE":null,"RA_OF_ASC_NODE":"133.2996","PERIAPSIS":"546.080","TLE_LINE2":"2 48028  53.0528 133.2996 0001715  48.6612 105.5701 15.06382346  3607","GP_ID":"202027389","RCS_SIZE":"LARGE","OBJECT_TYPE":"PAYLOAD","EPHEMERIS_TYPE":"0","APOAPSIS":"548.455","MEAN_MOTION":"15.06382346","SITE":"AFETR","FILE":"3416090","CLASSIFICATION_TYPE":"U","BSTAR":"0.00289250000000","LAUNCH_DATE":"2021-03-24","EPOCH":"2022-04-25T22:00:00.999936","ECCENTRICITY":"0.00017150","ELEMENT_SET_NO":"999","COUNTRY_CODE":"US","MEAN_ELEMENT_THEORY":"SGP4","MEAN_MOTION_DDOT":"0.0000000000000","NORAD_CAT_ID":"48028","OBJECT_ID":"2021-024BD","SEMIMAJOR_AXIS":"6925.403","REV_AT_EPOCH":"360","PERIOD":"95.593","REF_FRAME":"TEME","INCLINATION":"53.0528","ARG_OF_PERICENTER":"48.6612"},{"DECAY_DATE":null,"TIME_SYSTEM":"UTC","MEAN_MOTION_DOT":"0.00006139","CENTER_NAME":"EARTH","OBJECT_NAME":"STARLINK-2299","MEAN_ANOMALY":"317.5394","TLE_LINE1":"1 48029U 21024BE  22115.78185554  .00006139  00000-0  43062-3 0  9993","RCS_SIZE":"LARGE","TLE_LINE2":"2 48029  53.0537 198.9095 0001943  42.5746 317.5394 15.06407324 61522","GP_ID":"202026643","PERIAPSIS":"545.846","RA_OF_ASC_NODE":"198.9095","EPHEMERIS_TYPE":"0","OBJECT_TYPE":"PAYLOAD","CLASSIFICATION_TYPE":"U","SITE":"AFETR","FILE":"3416090","MEAN_MOTION":"15.06407324","APOAPSIS":"548.537","ELEMENT_SET_NO":"999","ECCENTRICITY":"0.00019430","EPOCH":"2022-04-25T18:45:52.318656","LAUNCH_DATE":"2021-03-24","BSTAR":"0.00043062000000","MEAN_MOTION_DDOT":"0.0000000000000","MEAN_ELEMENT_THEORY":"SGP4","COUNTRY_CODE":"US","REV_AT_EPOCH":"6152","SEMIMAJOR_AXIS":"6925.326","OBJECT_ID":"2021-024BE","NORAD_CAT_ID":"48029","ARG_OF_PERICENTER":"42.5746","INCLINATION":"53.0537","REF_FRAME":"TEME","PERIOD":"95.592"},{"TLE_LINE1":"1 48030U 21024BF  22115.74269789 -.00003897  00000-0 -24301-3 0  9999","MEAN_ANOMALY":"323.9023","OBJECT_NAME":"STARLINK-2268","MEAN_MOTION_DOT":"-0.00003897","TIME_SYSTEM":"UTC","CENTER_NAME":"EARTH","DECAY_DATE":null,"PERIAPSIS":"546.046","RA_OF_ASC_NODE":"204.0625","TLE_LINE2":"2 48030  53.0541 204.0625 0001779  36.2086 323.9023 15.06378973 61382","GP_ID":"202026893","RCS_SIZE":"LARGE","OBJECT_TYPE":"PAYLOAD","EPHEMERIS_TYPE":"0","APOAPSIS":"548.510","MEAN_MOTION":"15.06378973","CLASSIFICATION_TYPE":"U","FILE":"3416090","SITE":"AFETR","LAUNCH_DATE":"2021-03-24","BSTAR":"-0.00024301000000","EPOCH":"2022-04-25T17:49:29.097696","ECCENTRICITY":"0.00017790","ELEMENT_SET_NO":"999","COUNTRY_CODE":"US","MEAN_ELEMENT_THEORY":"SGP4","MEAN_MOTION_DDOT":"0.0000000000000","NORAD_CAT_ID":"48030","OBJECT_ID":"2021-024BF","SEMIMAJOR_AXIS":"6925.413","REV_AT_EPOCH":"6138","PERIOD":"95.593","INCLINATION":"53.0541","ARG_OF_PERICENTER":"36.2086","REF_FRAME":"TEME"}];
